{
    "week": 294,
    "satellites": [
        {
            "Name": "GSAT0218 (GALILEO 22)",
            "Line1": "1 43058U 17079D   24329.58971414 -.00000022  00000+0  00000+0 0  9996",
            "Line2": "2 43058  55.2714 237.1798 0003460 294.8470  65.1584  1.70473901 43277",
            "SatelliteNumber": "43058",
            "Classification": "U",
            "LaunchYear": "17",
            "LaunchNumber": "079",
            "PieceOfLaunch": "D",
            "EpochYear": "24",
            "EpochDay": 329.58971414,
            "FirstDerivativeMeanMotion": -2.2e-07,
            "SecondDerivativeMeanMotion": "00000+0",
            "BSTAR": "00000+0",
            "SetNumber": "999",
            "Inclination": 55.2714,
            "RAAN": 237.1798,
            "Eccentricity": 0.000346,
            "ArgumentOfPerigee": 294.847,
            "MeanAnomaly": 65.1584,
            "MeanMotion": 1.70473901,
            "RevolutionNumber": "4327"
        },
        {
            "Name": "GSAT0221 (GALILEO 25)",
            "Line1": "1 43564U 18060A   24331.25056020 -.00000080  00000+0  00000+0 0  9997",
            "Line2": "2 43564  57.2956 357.1035 0006148 273.8790  86.1053  1.70476121 39494",
            "SatelliteNumber": "43564",
            "Classification": "U",
            "LaunchYear": "18",
            "LaunchNumber": "060",
            "PieceOfLaunch": "A",
            "EpochYear": "24",
            "EpochDay": 331.2505602,
            "FirstDerivativeMeanMotion": -8e-07,
            "SecondDerivativeMeanMotion": "00000+0",
            "BSTAR": "00000+0",
            "SetNumber": "999",
            "Inclination": 57.2956,
            "RAAN": 357.1035,
            "Eccentricity": 0.0006148,
            "ArgumentOfPerigee": 273.879,
            "MeanAnomaly": 86.1053,
            "MeanMotion": 1.70476121,
            "RevolutionNumber": "3949"
        },
        {
            "Name": "GSAT0222 (GALILEO 26)",
            "Line1": "1 43565U 18060B   24327.94978855 -.00000091  00000+0  00000+0 0  9990",
            "Line2": "2 43565  57.2994 357.1948 0005723 251.8543 108.1328  1.70475794 39473",
            "SatelliteNumber": "43565",
            "Classification": "U",
            "LaunchYear": "18",
            "LaunchNumber": "060",
            "PieceOfLaunch": "B",
            "EpochYear": "24",
            "EpochDay": 327.94978855,
            "FirstDerivativeMeanMotion": -9.1e-07,
            "SecondDerivativeMeanMotion": "00000+0",
            "BSTAR": "00000+0",
            "SetNumber": "999",
            "Inclination": 57.2994,
            "RAAN": 357.1948,
            "Eccentricity": 0.0005723,
            "ArgumentOfPerigee": 251.8543,
            "MeanAnomaly": 108.1328,
            "MeanMotion": 1.70475794,
            "RevolutionNumber": "3947"
        },
        {
            "Name": "GSAT0219 (GALILEO 23)",
            "Line1": "1 43566U 18060C   24329.93119732 -.00000085  00000+0  00000+0 0  9996",
            "Line2": "2 43566  57.2984 357.1431 0005220 277.5854  82.4077  1.70476097 39485",
            "SatelliteNumber": "43566",
            "Classification": "U",
            "LaunchYear": "18",
            "LaunchNumber": "060",
            "PieceOfLaunch": "C",
            "EpochYear": "24",
            "EpochDay": 329.93119732,
            "FirstDerivativeMeanMotion": -8.5e-07,
            "SecondDerivativeMeanMotion": "00000+0",
            "BSTAR": "00000+0",
            "SetNumber": "999",
            "Inclination": 57.2984,
            "RAAN": 357.1431,
            "Eccentricity": 0.000522,
            "ArgumentOfPerigee": 277.5854,
            "MeanAnomaly": 82.4077,
            "MeanMotion": 1.70476097,
            "RevolutionNumber": "3948"
        },
        {
            "Name": "GSAT0220 (GALILEO 24)",
            "Line1": "1 43567U 18060D   24330.73852504 -.00000082  00000+0  00000+0 0  9995",
            "Line2": "2 43567  57.2979 357.1214 0005436 274.7072  85.2844  1.70476183 39488",
            "SatelliteNumber": "43567",
            "Classification": "U",
            "LaunchYear": "18",
            "LaunchNumber": "060",
            "PieceOfLaunch": "D",
            "EpochYear": "24",
            "EpochDay": 330.73852504,
            "FirstDerivativeMeanMotion": -8.2e-07,
            "SecondDerivativeMeanMotion": "00000+0",
            "BSTAR": "00000+0",
            "SetNumber": "999",
            "Inclination": 57.2979,
            "RAAN": 357.1214,
            "Eccentricity": 0.0005436,
            "ArgumentOfPerigee": 274.7072,
            "MeanAnomaly": 85.2844,
            "MeanMotion": 1.70476183,
            "RevolutionNumber": "3948"
        },
        {
            "Name": "GSAT0223 (GALILEO 27)",
            "Line1": "1 49809U 21116A   24330.63807083 -.00000082  00000+0  00000+0 0  9997",
            "Line2": "2 49809  57.2879 357.0173 0004297 238.4764 150.4019  1.70476333 18498",
            "SatelliteNumber": "49809",
            "Classification": "U",
            "LaunchYear": "21",
            "LaunchNumber": "116",
            "PieceOfLaunch": "A",
            "EpochYear": "24",
            "EpochDay": 330.63807083,
            "FirstDerivativeMeanMotion": -8.2e-07,
            "SecondDerivativeMeanMotion": "00000+0",
            "BSTAR": "00000+0",
            "SetNumber": "999",
            "Inclination": 57.2879,
            "RAAN": 357.0173,
            "Eccentricity": 0.0004297,
            "ArgumentOfPerigee": 238.4764,
            "MeanAnomaly": 150.4019,
            "MeanMotion": 1.70476333,
            "RevolutionNumber": "1849"
        },
        {
            "Name": "GSAT0224 (GALILEO 28)",
            "Line1": "1 49810U 21116B   24331.00081519 -.00000081  00000+0  00000+0 0  9998",
            "Line2": "2 49810  57.2891 357.0061 0005806 253.9738 110.0286  1.70476300 18515",
            "SatelliteNumber": "49810",
            "Classification": "U",
            "LaunchYear": "21",
            "LaunchNumber": "116",
            "PieceOfLaunch": "B",
            "EpochYear": "24",
            "EpochDay": 331.00081519,
            "FirstDerivativeMeanMotion": -8.1e-07,
            "SecondDerivativeMeanMotion": "00000+0",
            "BSTAR": "00000+0",
            "SetNumber": "999",
            "Inclination": 57.2891,
            "RAAN": 357.0061,
            "Eccentricity": 0.0005806,
            "ArgumentOfPerigee": 253.9738,
            "MeanAnomaly": 110.0286,
            "MeanMotion": 1.704763,
            "RevolutionNumber": "1851"
        },
        {
            "Name": "GSAT0225 (GALILEO 29)",
            "Line1": "1 59598U 24079A   24327.78868890  .00000049  00000+0  00000+0 0  9991",
            "Line2": "2 59598  54.7745 117.0687 0002276 159.7484  23.9372  1.70474912  3560",
            "SatelliteNumber": "59598",
            "Classification": "U",
            "LaunchYear": "24",
            "LaunchNumber": "079",
            "PieceOfLaunch": "A",
            "EpochYear": "24",
            "EpochDay": 327.7886889,
            "FirstDerivativeMeanMotion": 4.9e-07,
            "SecondDerivativeMeanMotion": "00000+0",
            "BSTAR": "00000+0",
            "SetNumber": "999",
            "Inclination": 54.7745,
            "RAAN": 117.0687,
            "Eccentricity": 0.0002276,
            "ArgumentOfPerigee": 159.7484,
            "MeanAnomaly": 23.9372,
            "MeanMotion": 1.70474912,
            "RevolutionNumber": "356"
        },
        {
            "Name": "GSAT0227 (GALILEO 30)",
            "Line1": "1 59600U 24079C   24330.01902235  .00000053  00000+0  00000+0 0  9992",
            "Line2": "2 59600  54.7804 117.0073 0003637 118.6171 241.4040  1.70474796  3668",
            "SatelliteNumber": "59600",
            "Classification": "U",
            "LaunchYear": "24",
            "LaunchNumber": "079",
            "PieceOfLaunch": "C",
            "EpochYear": "24",
            "EpochDay": 330.01902235,
            "FirstDerivativeMeanMotion": 5.3e-07,
            "SecondDerivativeMeanMotion": "00000+0",
            "BSTAR": "00000+0",
            "SetNumber": "999",
            "Inclination": 54.7804,
            "RAAN": 117.0073,
            "Eccentricity": 0.0003637,
            "ArgumentOfPerigee": 118.6171,
            "MeanAnomaly": 241.404,
            "MeanMotion": 1.70474796,
            "RevolutionNumber": "366"
        },
        {
            "Name": "GSAT0232 (GALILEO 32)",
            "Line1": "1 61182U 24167A   24321.21686440 -.00000004  00000+0  00000+0 0  9994",
            "Line2": "2 61182  55.3884 237.1378 0015743 276.0571  83.7985  1.73178105  1028",
            "SatelliteNumber": "61182",
            "Classification": "U",
            "LaunchYear": "24",
            "LaunchNumber": "167",
            "PieceOfLaunch": "A",
            "EpochYear": "24",
            "EpochDay": 321.2168644,
            "FirstDerivativeMeanMotion": -4e-08,
            "SecondDerivativeMeanMotion": "00000+0",
            "BSTAR": "00000+0",
            "SetNumber": "999",
            "Inclination": 55.3884,
            "RAAN": 237.1378,
            "Eccentricity": 0.0015743,
            "ArgumentOfPerigee": 276.0571,
            "MeanAnomaly": 83.7985,
            "MeanMotion": 1.73178105,
            "RevolutionNumber": "102"
        }
    ]
}